STARLINK-30701
1 57950U 23148R   25358.26466030 -.00000615  00000+0 -86401-5 0  9991
2 57950  53.1616  14.6618 0001488 114.8204 245.2952 15.30192007126878